STARLINK-36672          
1 68674U 26077N   26112.54091225 -.00554785  00000+0 -39280-2 0  9992
2 68674  97.2833 343.6014 0001543 118.0979 242.0442 15.75406943  1816
